{"type": "FeatureCollection", "features": [ {"type": "Feature", "properties": {"norad_id": 66525, "name": "STARLINK-35975", "group": "last-30-days", "lat": -42.45701714277692, "lon": -46.53044875727257, "alt_km": 446.6801575662439, "timestamp": "2025-12-16T10:53:44.204534+00:00", "meta": {"OBJECT_NAME": "STARLINK-35975", "OBJECT_ID": "2025-265K", "EPOCH": "2025-12-15T22:00:01.999584", "MEAN_MOTION": 15.40689813, "ECCENTRICITY": 0.00011669, "INCLINATION": 43.0008, "RA_OF_ASC_NODE": 35.6289, "ARG_OF_PERICENTER": 300.0272, "MEAN_ANOMALY": 234.395, "EPHEMERIS_TYPE": 0, "CLASSIFICATION_TYPE": "U", "NORAD_CAT_ID": 66525, "ELEMENT_SET_NO": 999, "REV_AT_EPOCH": 550, "BSTAR": 0.00022575097, "MEAN_MOTION_DOT": 9.135e-05, "MEAN_MOTION_DDOT": 0}, "tle": {"line1": "1 66525U 25265K   25349.91668981  .00009135  00000+0  22575-3 0  9996", "line2": "2 66525  43.0008  35.6289 0001166 300.0272 234.3950 15.40689813  5503"}}, "geometry": {"type": "Point", "coordinates": [-46.53044875727257, -42.45701714277692]}}, {"type": "Feature", "properties": {"norad_id": 66526, "name": "STARLINK-35932", "group": "last-30-days", "lat": 23.876910484015024, "lon": 60.60211739760696, "alt_km": 410.3156032867764, "timestamp": "2025-12-16T10:53:44.204545+00:00", "meta": {"OBJECT_NAME": "STARLINK-35932", "OBJECT_ID": "2025-265L", "EPOCH": "2025-12-14T10:49:31.784448", "MEAN_MOTION": 15.50621032, "ECCENTRICITY": 0.00017397, "INCLINATION": 43.0001, "RA_OF_ASC_NODE": 43.9653, "ARG_OF_PERICENTER": 227.2965, "MEAN_ANOMALY": 132.7749, "EPHEMERIS_TYPE": 0, "CLASSIFICATION_TYPE": "U", "NORAD_CAT_ID": 66526, "ELEMENT_SET_NO": 999, "REV_AT_EPOCH": 402, "BSTAR": 0.0026007534, "MEAN_MOTION_DOT": 0.00155535, "MEAN_MOTION_DDOT": 0}, "tle": {"line1": "1 66526U 25265L   25348.45106232  .00155535  00000+0  26008-2 0  9991", "line2": "2 66526  43.0001  43.9653 0001739 227.2965 132.7749 15.50621032  4022"}}, "geometry": {"type": "Point", "coordinates": [60.60211739760696, 23.876910484015024]}}, {"type": "Feature", "properties": {"norad_id": 66527, "name": "STARLINK-35935", "group": "last-30-days", "lat": 23.98890132416509, "lon": 60.7680020277311, "alt_km": 410.8789270507423, "timestamp": "2025-12-16T10:53:44.204556+00:00", "meta": {"OBJECT_NAME": "STARLINK-35935", "OBJECT_ID": "2025-265M", "EPOCH": "2025-12-15T13:05:53.883456", "MEAN_MOTION": 15.50717657, "ECCENTRICITY": 0.00013255, "INCLINATION": 43.0008, "RA_OF_ASC_NODE": 37.5593, "ARG_OF_PERICENTER": 259.6498, "MEAN_ANOMALY": 100.4213, "EPHEMERIS_TYPE": 0, "CLASSIFICATION_TYPE": "U", "NORAD_CAT_ID": 66527, "ELEMENT_SET_NO": 999, "REV_AT_EPOCH": 419, "BSTAR": 0.0016714965, "MEAN_MOTION_DOT": 0.00099462, "MEAN_MOTION_DDOT": 0}, "tle": {"line1": "1 66527U 25265M   25349.54576254  .00099462  00000+0  16715-2 0  9998", "line2": "2 66527  43.0008  37.5593 0001325 259.6498 100.4213 15.50717657  4198"}}, "geometry": {"type": "Point", "coordinates": [60.7680020277311, 23.98890132416509]}}, {"type": "Feature", "properties": {"norad_id": 66528, "name": "STARLINK-35928", "group": "last-30-days", "lat": 24.82337251863888, "lon": 61.99964091340374, "alt_km": 411.5985112809567, "timestamp": "2025-12-16T10:53:44.204567+00:00", "meta": {"OBJECT_NAME": "STARLINK-35928", "OBJECT_ID": "2025-265N", "EPOCH": "2025-12-15T13:05:24.594720", "MEAN_MOTION": 15.50596674, "ECCENTRICITY": 0.00024505, "INCLINATION": 43.0023, "RA_OF_ASC_NODE": 37.5569, "ARG_OF_PERICENTER": 268.8478, "MEAN_ANOMALY": 91.2102, "EPHEMERIS_TYPE": 0, "CLASSIFICATION_TYPE": "U", "NORAD_CAT_ID": 66528, "ELEMENT_SET_NO": 999, "REV_AT_EPOCH": 419, "BSTAR": 0.0011216232, "MEAN_MOTION_DOT": 0.00066061, "MEAN_MOTION_DDOT": 0}, "tle": {"line1": "1 66528U 25265N   25349.54542355  .00066061  00000+0  11216-2 0  9994", "line2": "2 66528  43.0023  37.5569 0002450 268.8478  91.2102 15.50596674  4197"}}, "geometry": {"type": "Point", "coordinates": [61.99964091340374, 24.82337251863888]}}, {"type": "Feature", "properties": {"norad_id": 66529, "name": "STARLINK-35933", "group": "last-30-days", "lat": -36.51661907589178, "lon": -94.76628879394501, "alt_km": 446.3471035452876, "timestamp": "2025-12-16T10:53:44.204581+00:00", "meta": {"OBJECT_NAME": "STARLINK-35933", "OBJECT_ID": "2025-265P", "EPOCH": "2025-12-15T22:00:01.999584", "MEAN_MOTION": 15.40695505, "ECCENTRICITY": 0.00012222, "INCLINATION": 43.0008, "RA_OF_ASC_NODE": 35.7194, "ARG_OF_PERICENTER": 264.2359, "MEAN_ANOMALY": 232.8542, "EPHEMERIS_TYPE": 0, "CLASSIFICATION_TYPE": "U", "NORAD_CAT_ID": 66529, "ELEMENT_SET_NO": 999, "REV_AT_EPOCH": 550, "BSTAR": 0.00039042237, "MEAN_MOTION_DOT": 0.00016037, "MEAN_MOTION_DDOT": 0}, "tle": {"line1": "1 66529U 25265P   25349.91668981  .00016037  00000+0  39042-3 0  9996", "line2": "2 66529  43.0008  35.7194 0001222 264.2359 232.8542 15.40695505  5508"}}, "geometry": {"type": "Point", "coordinates": [-94.76628879394501, -36.51661907589178]}}, {"type": "Feature", "properties": {"norad_id": 66530, "name": "STARLINK-35961", "group": "last-30-days", "lat": -42.82606298082335, "lon": -63.39444173048521, "alt_km": 446.5162992202513, "timestamp": "2025-12-16T10:53:44.204592+00:00", "meta": {"OBJECT_NAME": "STARLINK-35961", "OBJECT_ID": "2025-265Q", "EPOCH": "2025-12-15T22:00:01.999584", "MEAN_MOTION": 15.40694432, "ECCENTRICITY": 0.00013094, "INCLINATION": 43.001, "RA_OF_ASC_NODE": 35.6588, "ARG_OF_PERICENTER": 272.444, "MEAN_ANOMALY": 249.5328, "EPHEMERIS_TYPE": 0, "CLASSIFICATION_TYPE": "U", "NORAD_CAT_ID": 66530, "ELEMENT_SET_NO": 999, "REV_AT_EPOCH": 550, "BSTAR": 0.00026353359, "MEAN_MOTION_DOT": 0.00010718, "MEAN_MOTION_DDOT": 0}, "tle": {"line1": "1 66530U 25265Q   25349.91668981  .00010718  00000+0  26353-3 0  9999", "line2": "2 66530  43.0010  35.6588 0001309 272.4440 249.5328 15.40694432  5502"}}, "geometry": {"type": "Point", "coordinates": [-63.39444173048521, -42.82606298082335]}}, {"type": "Feature", "properties": {"norad_id": 66531, "name": "STARLINK-35960", "group": "last-30-days", "lat": -39.69208450986838, "lon": -30.454423586292627, "alt_km": 446.4643543596112, "timestamp": "2025-12-16T10:53:44.204603+00:00", "meta": {"OBJECT_NAME": "STARLINK-35960", "OBJECT_ID": "2025-265R", "EPOCH": "2025-12-15T22:00:01.999584", "MEAN_MOTION": 15.40689176, "ECCENTRICITY": 0.00012609, "INCLINATION": 43.0009, "RA_OF_ASC_NODE": 35.5976, "ARG_OF_PERICENTER": 269.9869, "MEAN_ANOMALY": 276.88, "EPHEMERIS_TYPE": 0, "CLASSIFICATION_TYPE": "U", "NORAD_CAT_ID": 66531, "ELEMENT_SET_NO": 999, "REV_AT_EPOCH": 550, "BSTAR": 0.00019145631, "MEAN_MOTION_DOT": 7.699e-05, "MEAN_MOTION_DDOT": 0}, "tle": {"line1": "1 66531U 25265R   25349.91668981  .00007699  00000+0  19146-3 0  9996", "line2": "2 66531  43.0009  35.5976 0001260 269.9869 276.8800 15.40689176  5500"}}, "geometry": {"type": "Point", "coordinates": [-30.454423586292627, -39.69208450986838]}}, {"type": "Feature", "properties": {"norad_id": 66532, "name": "STARLINK-35914", "group": "last-30-days", "lat": -28.635708863056706, "lon": -3.4291969316930544, "alt_km": 445.75515011186326, "timestamp": "2025-12-16T10:53:44.204614+00:00", "meta": {"OBJECT_NAME": "STARLINK-35914", "OBJECT_ID": "2025-265S", "EPOCH": "2025-12-15T22:00:01.999584", "MEAN_MOTION": 15.40697686, "ECCENTRICITY": 0.00015786, "INCLINATION": 43.0008, "RA_OF_ASC_NODE": 35.5372, "ARG_OF_PERICENTER": 277.4399, "MEAN_ANOMALY": 294.2923, "EPHEMERIS_TYPE": 0, "CLASSIFICATION_TYPE": "U", "NORAD_CAT_ID": 66532, "ELEMENT_SET_NO": 999, "REV_AT_EPOCH": 550, "BSTAR": 0.00018986108, "MEAN_MOTION_DOT": 7.635e-05, "MEAN_MOTION_DDOT": 0}, "tle": {"line1": "1 66532U 25265S   25349.91668981  .00007635  00000+0  18986-3 0  9998", "line2": "2 66532  43.0008  35.5372 0001578 277.4399 294.2923 15.40697686  5509"}}, "geometry": {"type": "Point", "coordinates": [-3.4291969316930544, -28.635708863056706]}}, {"type": "Feature", "properties": {"norad_id": 66533, "name": "STARLINK-35707", "group": "last-30-days", "lat": 27.838199492408776, "lon": 66.74853534170562, "alt_km": 415.9355747674299, "timestamp": "2025-12-16T10:53:44.204625+00:00", "meta": {"OBJECT_NAME": "STARLINK-35707", "OBJECT_ID": "2025-265T", "EPOCH": "2025-12-15T13:02:43.828512", "MEAN_MOTION": 15.49030729, "ECCENTRICITY": 0.00031573, "INCLINATION": 43.001, "RA_OF_ASC_NODE": 37.5429, "ARG_OF_PERICENTER": 276.559, "MEAN_ANOMALY": 83.491, "EPHEMERIS_TYPE": 0, "CLASSIFICATION_TYPE": "U", "NORAD_CAT_ID": 66533, "ELEMENT_SET_NO": 999, "REV_AT_EPOCH": 419, "BSTAR": 0.00097734741, "MEAN_MOTION_DOT": 0.00054327, "MEAN_MOTION_DDOT": 0}, "tle": {"line1": "1 66533U 25265T   25349.54356283  .00054327  00000+0  97735-3 0  9996", "line2": "2 66533  43.0010  37.5429 0003157 276.5590  83.4910 15.49030729  4192"}}, "geometry": {"type": "Point", "coordinates": [66.74853534170562, 27.838199492408776]}}, {"type": "Feature", "properties": {"norad_id": 66534, "name": "STARLINK-35976", "group": "last-30-days", "lat": 29.943746991712914, "lon": 70.3922560827583, "alt_km": 411.19800313177893, "timestamp": "2025-12-16T10:53:44.204651+00:00", "meta": {"OBJECT_NAME": "STARLINK-35976", "OBJECT_ID": "2025-265U", "EPOCH": "2025-12-15T09:57:03.123072", "MEAN_MOTION": 15.50050631, "ECCENTRICITY": 0.00060772, "INCLINATION": 43.0051, "RA_OF_ASC_NODE": 38.2938, "ARG_OF_PERICENTER": 127.1063, "MEAN_ANOMALY": 233.0353, "EPHEMERIS_TYPE": 0, "CLASSIFICATION_TYPE": "U", "NORAD_CAT_ID": 66534, "ELEMENT_SET_NO": 999, "REV_AT_EPOCH": 417, "BSTAR": 0.0011426931, "MEAN_MOTION_DOT": 0.00066046, "MEAN_MOTION_DDOT": 0}, "tle": {"line1": "1 66534U 25265U   25349.41461948  .00066046  00000+0  11427-2 0  9992", "line2": "2 66534  43.0051  38.2938 0006077 127.1063 233.0353 15.50050631  4179"}}, "geometry": {"type": "Point", "coordinates": [70.3922560827583, 29.943746991712914]}}]}